SEEDS II (CO-66)        
1 32791U 08021J   26068.92109284  .00023758  00000+0  84213-3 0  9995
2 32791  97.7519  62.3611 0001448 359.2618   0.8619 15.29097235972108
STARLINK-32672          
1 62195U 24229D   26068.95917960  .00015690  00000+0  57823-3 0  9998
2 62195  43.0028 269.1028 0002832 248.7074 111.3475 15.27591604 70602
